0 COSMOS 1110
1 11425U 79060A   13281.86760988  .00000141  00000-0  61299-4 0  3229
2 11425 074.0143 090.8501 0013930 177.5797 289.7201 14.32846255790663
0 COSMOS 1110
1 11425U 79060A   13283.05936194  .00000148  00000-0  63848-4 0  3236
2 11425 074.0144 088.6703 0013830 174.6859 317.5039 14.32847258790831
0 COSMOS 1110
1 11425U 79060A   13285.99213303  .00000094  00000-0  43833-4 0  3255
2 11425 074.0149 083.3065 0013704 168.6572 325.4456 14.32848383791252
0 COSMOS 1110
1 11425U 79060A   13287.44387880  .00000108  00000-0  49290-4 0  3269
2 11425 074.0152 080.6514 0013635 165.7612 253.8169 14.32848831791467
0 COSMOS 1110
1 11425U 79060A   13288.84960461  .00000140  00000-0  60683-4 0  3272
2 11425 074.0156 078.0808 0013568 162.7696 304.9995 14.32849500791663
0 COSMOS 1110
1 11425U 79060A   13289.89801126  .00000130  00000-0  57257-4 0  3283
2 11425 074.0159 076.1635 0013526 160.3862 313.1700 14.32849886791816
0 COSMOS 1110
1 11425U 79060A   13291.42328351  .00000164  00000-0  69765-4 0  3294
2 11425 074.0161 073.3742 0013478 157.1006 261.0581 14.32850180792039
0 COSMOS 1110
1 11425U 79060A   13292.83794610  .00000210  00000-0  86328-4 0  3303
2 11425 074.0162 070.7871 0013413 154.0186 358.4184 14.32850532792231
0 COSMOS 1110
1 11425U 79060A   13293.95237705  .00000191  00000-0  79489-4 0  3313
2 11425 074.0163 068.7491 0013383 151.4889 347.1729 14.32851405792391
0 COSMOS 1110
1 11425U 79060A   13295.46883050  .00000186  00000-0  77639-4 0  3321
2 11425 074.0164 065.9759 0013344 148.1745 249.6248 14.32852044792616
